{
  "norad_id": 48997,
  "name": "ONEWEB-0279",
  "history": [
    {
      "epoch": "2026-03-28T19:01:54.081984Z",
      "apogee_km": 1199.2555754966688,
      "perigee_km": 1196.262339003959,
      "latitude_deg": 4.698386607647324e-05,
      "longitude_deg": 133.06782051459533,
      "height_km": 1201.0168986202805,
      "semi_major_axis_km": 7575.895957250314,
      "eccentricity": 0.00019755,
      "inclination_deg": 87.9034,
      "raan_deg": 244.7515,
      "arg_perigee_deg": 104.0834,
      "mean_anomaly_deg": 256.0517,
      "mean_motion_rev_day": 13.1659366
    },
    {
      "epoch": "2026-03-29T04:09:04.698720Z",
      "apogee_km": 1199.2583490725028,
      "perigee_km": 1196.2537498890788,
      "latitude_deg": -5.008761043663608e-05,
      "longitude_deg": -4.176648724839199,
      "height_km": 1201.0118710031825,
      "semi_major_axis_km": 7575.89304948079,
      "eccentricity": 0.0001983,
      "inclination_deg": 87.9034,
      "raan_deg": 244.6758,
      "arg_perigee_deg": 103.9457,
      "mean_anomaly_deg": 256.1894,
      "mean_motion_rev_day": 13.16594418
    },
    {
      "epoch": "2026-03-30T03:51:44.423712Z",
      "apogee_km": 1199.2622287195363,
      "perigee_km": 1196.2470238522747,
      "latitude_deg": -5.0893415679155656e-05,
      "longitude_deg": -1.0129465421562909,
      "height_km": 1201.0055145865765,
      "semi_major_axis_km": 7575.891626285905,
      "eccentricity": 0.000199,
      "inclination_deg": 87.9035,
      "raan_deg": 244.4788,
      "arg_perigee_deg": 103.7032,
      "mean_anomaly_deg": 256.432,
      "mean_motion_rev_day": 13.16594789
    },
    {
      "epoch": "2026-03-30T09:20:02.842656Z",
      "apogee_km": 1199.2644306973234,
      "perigee_km": 1196.2461951998448,
      "latitude_deg": -8.66447524355131e-05,
      "longitude_deg": -83.3598113250818,
      "height_km": 1201.0029201683678,
      "semi_major_axis_km": 7575.892312948584,
      "eccentricity": 0.0001992,
      "inclination_deg": 87.9036,
      "raan_deg": 244.4334,
      "arg_perigee_deg": 103.561,
      "mean_anomaly_deg": 256.5742,
      "mean_motion_rev_day": 13.1659461
    },
    {
      "epoch": "2026-03-30T20:16:39.674496Z",
      "apogee_km": 1199.277585223187,
      "perigee_km": 1196.235257942948,
      "latitude_deg": 2.6378853431996595e-05,
      "longitude_deg": 111.94639109830547,
      "height_km": 1201.003930988,
      "semi_major_axis_km": 7575.893421583067,
      "eccentricity": 0.00020079,
      "inclination_deg": 87.9037,
      "raan_deg": 244.3425,
      "arg_perigee_deg": 103.4496,
      "mean_anomaly_deg": 256.6859,
      "mean_motion_rev_day": 13.16594321
    },
    {
      "epoch": "2026-03-31T09:02:42.584928Z",
      "apogee_km": 1199.276368701343,
      "perigee_km": 1196.2322240606318,
      "latitude_deg": -3.6073914846279928e-06,
      "longitude_deg": -80.19607765690742,
      "height_km": 1200.9974138998678,
      "semi_major_axis_km": 7575.891296380987,
      "eccentricity": 0.00020091,
      "inclination_deg": 87.9037,
      "raan_deg": 244.2365,
      "arg_perigee_deg": 103.2715,
      "mean_anomaly_deg": 256.864,
      "mean_motion_rev_day": 13.16594875
    },
    {
      "epoch": "2026-04-01T16:03:06.911136Z",
      "apogee_km": 1199.2889131629854,
      "perigee_km": 1196.2206769859795,
      "latitude_deg": -1.7111073726505555e-05,
      "longitude_deg": 173.17186207778175,
      "height_km": 1200.9903249401734,
      "semi_major_axis_km": 7575.891795074482,
      "eccentricity": 0.0002025,
      "inclination_deg": 87.9041,
      "raan_deg": 243.9792,
      "arg_perigee_deg": 102.8757,
      "mean_anomaly_deg": 257.26,
      "mean_motion_rev_day": 13.16594745
    },
    {
      "epoch": "2026-04-02T15:45:46.655136Z",
      "apogee_km": 1199.2820348842006,
      "perigee_km": 1196.2234966679616,
      "latitude_deg": 4.006519472129736e-05,
      "longitude_deg": 176.33568721538833,
      "height_km": 1200.9829339538496,
      "semi_major_axis_km": 7575.889765776081,
      "eccentricity": 0.00020186,
      "inclination_deg": 87.9042,
      "raan_deg": 243.7824,
      "arg_perigee_deg": 102.7112,
      "mean_anomaly_deg": 257.4245,
      "mean_motion_rev_day": 13.16595274
    },
    {
      "epoch": "2026-04-02T21:14:05.097408Z",
      "apogee_km": 1199.2784064407542,
      "perigee_km": 1196.2295648724867,
      "latitude_deg": 4.865204002698337e-06,
      "longitude_deg": 93.98872488238855,
      "height_km": 1200.9811391871629,
      "semi_major_axis_km": 7575.890985656621,
      "eccentricity": 0.00020122,
      "inclination_deg": 87.9042,
      "raan_deg": 243.737,
      "arg_perigee_deg": 102.6356,
      "mean_anomaly_deg": 257.5,
      "mean_motion_rev_day": 13.16594956
    },
    {
      "epoch": "2026-04-03T20:56:44.844864Z",
      "apogee_km": 1199.2793672292091,
      "perigee_km": 1196.227798502432,
      "latitude_deg": -2.2199400792092743e-05,
      "longitude_deg": 97.15263166145589,
      "height_km": 1200.979028538954,
      "semi_major_axis_km": 7575.890582865821,
      "eccentricity": 0.0002014,
      "inclination_deg": 87.9046,
      "raan_deg": 243.5403,
      "arg_perigee_deg": 102.5583,
      "mean_anomaly_deg": 257.5773,
      "mean_motion_rev_day": 13.16595061
    },
    {
      "epoch": "2026-04-04T04:14:29.335488Z",
      "apogee_km": 1199.2664992639266,
      "perigee_km": 1196.237052860155,
      "latitude_deg": -6.946065261087458e-05,
      "longitude_deg": -12.642971253855764,
      "height_km": 1200.9717314873576,
      "semi_major_axis_km": 7575.888776062041,
      "eccentricity": 0.00019994,
      "inclination_deg": 87.9045,
      "raan_deg": 243.4797,
      "arg_perigee_deg": 102.4376,
      "mean_anomaly_deg": 257.6978,
      "mean_motion_rev_day": 13.16595532
    },
    {
      "epoch": "2026-04-05T09:25:27.550272Z",
      "apogee_km": 1199.2853169054924,
      "perigee_km": 1196.2234446450384,
      "latitude_deg": 3.6833280583450637e-05,
      "longitude_deg": -91.82622701702411,
      "height_km": 1200.960775503329,
      "semi_major_axis_km": 7575.891380775265,
      "eccentricity": 0.00020208,
      "inclination_deg": 87.9045,
      "raan_deg": 243.2375,
      "arg_perigee_deg": 101.7874,
      "mean_anomaly_deg": 258.3484,
      "mean_motion_rev_day": 13.16594853
    },
    {
      "epoch": "2026-04-05T20:22:04.343232Z",
      "apogee_km": 1199.2853281828438,
      "perigee_km": 1196.2216380714672,
      "latitude_deg": 1.835564372336479e-05,
      "longitude_deg": 103.48013171722639,
      "height_km": 1200.9584964839175,
      "semi_major_axis_km": 7575.890483127156,
      "eccentricity": 0.0002022,
      "inclination_deg": 87.9046,
      "raan_deg": 243.1466,
      "arg_perigee_deg": 101.7275,
      "mean_anomaly_deg": 258.4083,
      "mean_motion_rev_day": 13.16595087
    },
    {
      "epoch": "2026-04-06T03:39:48.855456Z",
      "apogee_km": 1199.2842904240333,
      "perigee_km": 1196.2215096552454,
      "latitude_deg": 2.0825552294190703e-06,
      "longitude_deg": -6.315460788616677,
      "height_km": 1200.9503687295305,
      "semi_major_axis_km": 7575.889900039639,
      "eccentricity": 0.00020214,
      "inclination_deg": 87.9047,
      "raan_deg": 243.0861,
      "arg_perigee_deg": 101.4429,
      "mean_anomaly_deg": 258.6929,
      "mean_motion_rev_day": 13.16595239
    },
    {
      "epoch": "2026-04-07T10:40:13.268928Z",
      "apogee_km": 1199.3073731678187,
      "perigee_km": 1196.2077716624617,
      "latitude_deg": -5.831159051519105e-05,
      "longitude_deg": -112.94809246137842,
      "height_km": 1200.962884375024,
      "semi_major_axis_km": 7575.89457241514,
      "eccentricity": 0.00020457,
      "inclination_deg": 87.9051,
      "raan_deg": 242.8286,
      "arg_perigee_deg": 101.6021,
      "mean_anomaly_deg": 258.5339,
      "mean_motion_rev_day": 13.16594021
    },
    {
      "epoch": "2026-04-07T19:47:23.947872Z",
      "apogee_km": 1199.3154735011149,
      "perigee_km": 1196.198750663404,
      "latitude_deg": 1.1362366390953935e-05,
      "longitude_deg": 109.80728333955379,
      "height_km": 1200.9628869967314,
      "semi_major_axis_km": 7575.894112082259,
      "eccentricity": 0.0002057,
      "inclination_deg": 87.9052,
      "raan_deg": 242.753,
      "arg_perigee_deg": 101.556,
      "mean_anomaly_deg": 258.5802,
      "mean_motion_rev_day": 13.16594141
    },
    {
      "epoch": "2026-04-08T10:22:53.076864Z",
      "apogee_km": 1199.3159869034598,
      "perigee_km": 1196.2009302088109,
      "latitude_deg": 5.310133480181755e-06,
      "longitude_deg": -109.78443805065278,
      "height_km": 1200.9580007464692,
      "semi_major_axis_km": 7575.895458556135,
      "eccentricity": 0.00020559,
      "inclination_deg": 87.9052,
      "raan_deg": 242.6319,
      "arg_perigee_deg": 101.3284,
      "mean_anomaly_deg": 258.8078,
      "mean_motion_rev_day": 13.1659379
    },
    {
      "epoch": "2026-04-09T19:12:43.603488Z",
      "apogee_km": 1199.3161700955443,
      "perigee_km": 1196.2009618388192,
      "latitude_deg": -1.8591163922743366e-05,
      "longitude_deg": 116.13432038438422,
      "height_km": 1200.9504923001546,
      "semi_major_axis_km": 7575.895565967182,
      "eccentricity": 0.0002056,
      "inclination_deg": 87.9053,
      "raan_deg": 242.3595,
      "arg_perigee_deg": 101.0423,
      "mean_anomaly_deg": 259.0939,
      "mean_motion_rev_day": 13.16593762
    },
    {
      "epoch": "2026-04-10T07:58:46.545888Z",
      "apogee_km": 1199.3253852737762,
      "perigee_km": 1196.1874502201454,
      "latitude_deg": 1.563323590173886e-06,
      "longitude_deg": -76.00818219184931,
      "height_km": 1200.9466636951486,
      "semi_major_axis_km": 7575.893417746961,
      "eccentricity": 0.0002071,
      "inclination_deg": 87.9056,
      "raan_deg": 242.2536,
      "arg_perigee_deg": 100.8999,
      "mean_anomaly_deg": 259.2365,
      "mean_motion_rev_day": 13.16594322
    }
  ]
}